#aV2023 10 12  0  0  0.00000000     288 DD+AD WGS84 FIT  NGA
## 2283 345600.00000000   300.00000000 60229 0.0000000000000
+   32     1  2  3  4  5  6  7  8  9 10 11 12 13 14 15 16 17
+         18 19 20 21 22 23 24 25 26 27 28 29 30 31 32  0  0
+          0  0  0  0  0  0  0  0  0  0  0  0  0  0  0  0  0
+          0  0  0  0  0  0  0  0  0  0  0  0  0  0  0  0  0
+          0  0  0  0  0  0  0  0  0  0  0  0  0  0  0  0  0
++         2  2  2  2  2  2  2  2  2  2  2  2  2  2  2  2  2
++         2  2  2  2  2  2  2  2  2  2  2  2  2  2  2  0  0
++         0  0  0  0  0  0  0  0  0  0  0  0  0  0  0  0  0
++         0  0  0  0  0  0  0  0  0  0  0  0  0  0  0  0  0
++         0  0  0  0  0  0  0  0  0  0  0  0  0  0  0  0  0
%c cc cc ccc ccc cccc cccc cccc cccc ccccc ccccc ccccc ccccc
%c cc cc ccc ccc cccc cccc cccc cccc ccccc ccccc ccccc ccccc
%f  0.0000000  0.000000000  0.00000000000  0.000000000000000
%f  0.0000000  0.000000000  0.00000000000  0.000000000000000
%i    0    0    0    0      0      0      0      0         0
%i    0    0    0    0      0      0      0      0         0
/*      NGA, ST. LOUIS,MO.                                  
/*   EPHEMERIS COMPUTED FROM 2 DAYS OF DATA                 
/*   EPOCHA v8 SMOOTHER                                     
/*   G2139 IERS2010 SATIGS SATAPC                           
*  2023 10 12 16 50  0.00000000
P  1 -13405.638825  13613.453320  17954.272208    163.825217                    
V  1   1333.950261 -23559.398270  18835.457723     -0.004792                    
P  2 -14824.305878   6885.911306  21405.810591   -542.896101                    
V  2   -361.317065 -26039.217076   8503.823228      0.047145                    
P  3 -23171.545211  12590.286106  -2762.342647    -83.060201                    
V  3  -3962.977656   -664.023428  32011.124236      0.226815                    
P  4 -15500.695521   6232.382249 -20667.842253    182.450578                    
V  4 -20328.390373 -16586.502424  10117.590532      0.108249                    
P  5  23840.572395  -3382.518217 -11498.076622   -146.233637                    
V  5 -11730.091714   8402.091691 -27132.236844     -0.014662                    
P  6   6445.960067  21975.797574 -13306.656975    532.073094                    
V  6  -3383.364670  16728.112341  25947.353567     -0.082682                    
P  7  -5511.449328  25277.041523  -4274.656076     42.307919                    
V  7  -2939.993784  -6411.023463 -31209.990703     -0.102228                    
P  8 -21979.838881  -1966.259004  14993.062584   -146.769445                    
V  8 -14758.810944 -12150.529251 -22712.297314     -0.019046                    
P  9  -6086.404207  14296.226479 -21626.238926    -34.395655                    
V  9 -22773.765262 -15003.918068  -3576.158073      0.107358                    
P 10  -3236.557674 -14740.067682  22012.250295    -57.062098                    
V 10  25145.974869 -11097.780687  -4084.025442     -0.015366                    
P 11  12781.522151  10889.926225 -20573.095871   -411.874746                    
V 11  -4614.828408  25737.740279  10695.871386     -0.174280                    
P 12  24705.707974  -9639.932350   -478.087127   -435.082951                    
V 12   1238.709488   2500.725664  31870.042274     -0.042424                    
P 13  21872.044563  11989.172772   9234.939993    583.202618                    
V 13   7175.363946   9776.195299 -28850.880413      0.043416                    
P 14   -836.486998  16549.330416  20747.441181    211.961572                    
V 14 -24665.025170   9393.473206  -8665.159411      0.110967                    
P 15  21649.521191  -1392.184043  14991.396196     86.420270                    
V 15  16512.957359  11377.626752 -21847.251514      0.037159                    
P 16 -21986.347897  -3363.292977 -15161.419790   -440.219971                    
V 16  16916.657872  -7696.952402 -22860.167154      0.060406                    
P 17   8537.131066  20276.270476  15229.300627    723.836663                    
V 17 -15545.886713 -10346.344739  23273.131793     -0.000646                    
P 18   4872.569935 -25853.442507  -2825.781133   -446.606032                    
V 18   2092.855915   3872.775676 -31911.689743     -0.118076                    
P 19  15711.205609  20375.969014   7075.818745    384.004820                    
V 19  -8258.228388  -4482.792152  30062.642325      0.051967                    
P 20  17272.933843   5001.862511 -19443.003490    407.181315                    
V 20 -19687.854520  15272.442085 -13716.262881     -0.019540                    
P 21 -15355.295438   2150.036651  22013.976462    146.929358                    
V 21   -447.417934 -26816.134288   3271.088022     -0.009000                    
P 22   6088.803660  14145.700879  22087.618543    104.250874                    
V 22 -25362.259515   9156.571889   1428.356472     -0.072182                    
P 23  10297.102294 -17740.829960  16779.141973     81.635112                    
V 23  19846.583919  -7975.886513 -20795.908842      0.057470                    
P 24  14639.222578  -8978.051268  19769.538209   -344.228540                    
V 24   1465.524428  26174.748235  11015.782227     -0.099061                    
P 25  16637.135589 -17112.400833 -11682.189889    472.372961                    
V 25  14236.914270  -3740.973552  26744.494841      0.018442                    
P 26 -14494.412608  -9315.327306 -20419.318971    223.597360                    
V 26  22056.820976 -13164.497052  -9353.234169     -0.022255                    
P 27 -23144.853034 -12704.079728   4251.185239    -54.037042                    
V 27  -3288.745897  -5143.450271 -30980.091631     -0.058268                    
P 28  -6539.643249 -23105.918461 -11374.621237    -24.313893                    
V 28   3239.933226 -14234.700136  27109.044611     -0.067825                    
P 29   7061.916566 -13418.031791 -21842.539326   -610.008130                    
V 29  21409.341871  17415.407050  -3885.548230     -0.001916                    
P 30   1320.234089  25872.911896   5307.146172   -479.265075                    
V 30  -4348.573196   6259.123624 -30379.375829      0.036737                    
P 31 -11261.068821 -15547.840389 -18366.636856   -224.564518                    
V 31   4476.825266 -22733.698053  17089.290620     -0.004585                    
P 32 -13465.029367 -19692.513299  12069.888304   -571.643878                    
V 32  13522.378555   6785.429480  26352.222095     -0.053502                    
EOF
